TISAT 1                 
1 36799U 10035E   26068.75703561  .00024554  00000+0  91005-3 0  9996
2 36799  98.0645   6.8512 0001343 159.3030 200.8262 15.27628633852505
STARLINK-32938          
1 63201U 25048U   26068.11306654  .00027488  00000+0  10035-2 0  9998
2 63201  42.9993  88.5968 0001638 281.6185  78.4483 15.27619256 57003
